{
  "type": "FeatureCollection",
  "features": [
    {
      "type": "Feature",
      "properties": {
        "norad_id": 38062,
        "name": "COSMOS 2251 DEB",
        "group": "cosmos-2251-debris",
        "lat": 72.70824663455195,
        "lon": 14.688572956034905,
        "alt_km": 570.4396619458139,
        "timestamp": "2025-12-26T22:28:06.183641+00:00",
        "meta_object_name": "COSMOS 2251 DEB",
        "meta_object_id": "1993-036BRU",
        "meta_epoch": "2025-12-20T12:40:12.328608",
        "meta_mean_motion": 14.95206267,
        "meta_eccentricity": 0.00129431,
        "meta_inclination": 74.0088,
        "meta_ra_of_asc_node": 274.7346,
        "meta_arg_of_pericenter": 42.7602,
        "meta_mean_anomaly": 131.9089,
        "meta_ephemeris_type": 0,
        "meta_classification_type": "U",
        "meta_norad_cat_id": 38062,
        "meta_element_set_no": 999,
        "meta_rev_at_epoch": 63146,
        "meta_bstar": 0.0014745207,
        "meta_mean_motion_dot": 0.00016237,
        "meta_mean_motion_ddot": 0,
        "tle_line1": "1 38062U 93036BRU 25354.52792047  .00016237  00000+0  14745-2 0  9996",
        "tle_line2": "2 38062  74.0088 274.7346 0012943  42.7602 131.9089 14.95206267631464"
      },
      "geometry": {
        "type": "Point",
        "coordinates": [
          14.688572956034905,
          72.70824663455195
        ]
      }
    },
    {
      "type": "Feature",
      "properties": {
        "norad_id": 38064,
        "name": "COSMOS 2251 DEB",
        "group": "cosmos-2251-debris",
        "lat": -12.750615083353667,
        "lon": -79.09794802155713,
        "alt_km": 677.7586662293943,
        "timestamp": "2025-12-26T22:28:06.183652+00:00",
        "meta_object_name": "COSMOS 2251 DEB",
        "meta_object_id": "1993-036BRW",
        "meta_epoch": "2025-12-24T00:20:31.022880",
        "meta_mean_motion": 14.5638999,
        "meta_eccentricity": 0.00470717,
        "meta_inclination": 74.023,
        "meta_ra_of_asc_node": 102.7307,
        "meta_arg_of_pericenter": 220.4178,
        "meta_mean_anomaly": 139.3486,
        "meta_ephemeris_type": 0,
        "meta_classification_type": "U",
        "meta_norad_cat_id": 38064,
        "meta_element_set_no": 999,
        "meta_rev_at_epoch": 72029,
        "meta_bstar": 0.0010077447,
        "meta_mean_motion_dot": 4.512e-05,
        "meta_mean_motion_ddot": 0,
        "tle_line1": "1 38064U 93036BRW 25358.01424795  .00004512  00000+0  10077-2 0  9995",
        "tle_line2": "2 38064  74.0230 102.7307 0047071 220.4178 139.3486 14.56389990720290"
      },
      "geometry": {
        "type": "Point",
        "coordinates": [
          -79.09794802155713,
          -12.750615083353667
        ]
      }
    },
    {
      "type": "Feature",
      "properties": {
        "norad_id": 38067,
        "name": "COSMOS 2251 DEB",
        "group": "cosmos-2251-debris",
        "lat": 55.24080027269704,
        "lon": -88.27307757386407,
        "alt_km": 639.8207981929772,
        "timestamp": "2025-12-26T22:28:06.183662+00:00",
        "meta_object_name": "COSMOS 2251 DEB",
        "meta_object_id": "1993-036BRZ",
        "meta_epoch": "2025-12-26T11:29:24.952992",
        "meta_mean_motion": 14.61174653,
        "meta_eccentricity": 0.0070045,
        "meta_inclination": 74.0162,
        "meta_ra_of_asc_node": 248.2067,
        "meta_arg_of_pericenter": 32.1655,
        "meta_mean_anomaly": 141.0847,
        "meta_ephemeris_type": 0,
        "meta_classification_type": "U",
        "meta_norad_cat_id": 38067,
        "meta_element_set_no": 999,
        "meta_rev_at_epoch": 62756,
        "meta_bstar": 0.00033487,
        "meta_mean_motion_dot": 1.676e-05,
        "meta_mean_motion_ddot": 0,
        "tle_line1": "1 38067U 93036BRZ 25360.47876103  .00001676  00000+0  33487-3 0  9994",
        "tle_line2": "2 38067  74.0162 248.2067 0070045  32.1655 141.0847 14.61174653627562"
      },
      "geometry": {
        "type": "Point",
        "coordinates": [
          -88.27307757386407,
          55.24080027269704
        ]
      }
    },
    {
      "type": "Feature",
      "properties": {
        "norad_id": 38068,
        "name": "COSMOS 2251 DEB",
        "group": "cosmos-2251-debris",
        "lat": -20.84593329492437,
        "lon": -84.11859089914081,
        "alt_km": 760.7220069042187,
        "timestamp": "2025-12-26T22:28:06.183673+00:00",
        "meta_object_name": "COSMOS 2251 DEB",
        "meta_object_id": "1993-036BSA",
        "meta_epoch": "2025-12-26T12:32:13.592256",
        "meta_mean_motion": 14.36020492,
        "meta_eccentricity": 0.0025088,
        "meta_inclination": 74.0217,
        "meta_ra_of_asc_node": 282.905,
        "meta_arg_of_pericenter": 7.3402,
        "meta_mean_anomaly": 352.8113,
        "meta_ephemeris_type": 0,
        "meta_classification_type": "U",
        "meta_norad_cat_id": 38068,
        "meta_element_set_no": 999,
        "meta_rev_at_epoch": 66844,
        "meta_bstar": 0.00030529,
        "meta_mean_motion_dot": 8.64e-06,
        "meta_mean_motion_ddot": 0,
        "tle_line1": "1 38068U 93036BSA 25360.52237954  .00000864  00000+0  30529-3 0  9998",
        "tle_line2": "2 38068  74.0217 282.9050 0025088   7.3402 352.8113 14.36020492668445"
      },
      "geometry": {
        "type": "Point",
        "coordinates": [
          -84.11859089914081,
          -20.84593329492437
        ]
      }
    },
    {
      "type": "Feature",
      "properties": {
        "norad_id": 38197,
        "name": "COSMOS 2251 DEB",
        "group": "cosmos-2251-debris",
        "lat": 52.654878693413146,
        "lon": 126.97529266334732,
        "alt_km": 623.3881516875026,
        "timestamp": "2025-12-26T22:28:06.183683+00:00",
        "meta_object_name": "COSMOS 2251 DEB",
        "meta_object_id": "1993-036BSM",
        "meta_epoch": "2025-12-22T15:18:58.604256",
        "meta_mean_motion": 14.74460834,
        "meta_eccentricity": 0.01247811,
        "meta_inclination": 73.938,
        "meta_ra_of_asc_node": 337.6017,
        "meta_arg_of_pericenter": 212.6548,
        "meta_mean_anomaly": 146.6868,
        "meta_ephemeris_type": 0,
        "meta_classification_type": "U",
        "meta_norad_cat_id": 38197,
        "meta_element_set_no": 999,
        "meta_rev_at_epoch": 85901,
        "meta_bstar": 0.0030808591,
        "meta_mean_motion_dot": 0.00023252,
        "meta_mean_motion_ddot": 0,
        "tle_line1": "1 38197U 93036BSM 25356.63817829  .00023252  00000+0  30809-2 0  9999",
        "tle_line2": "2 38197  73.9380 337.6017 0124781 212.6548 146.6868 14.74460834859011"
      },
      "geometry": {
        "type": "Point",
        "coordinates": [
          126.97529266334732,
          52.654878693413146
        ]
      }
    },
    {
      "type": "Feature",
      "properties": {
        "norad_id": 38199,
        "name": "COSMOS 2251 DEB",
        "group": "cosmos-2251-debris",
        "lat": 73.2055463596642,
        "lon": 111.30944256826687,
        "alt_km": 1150.5892075327802,
        "timestamp": "2025-12-26T22:28:06.183693+00:00",
        "meta_object_name": "COSMOS 2251 DEB",
        "meta_object_id": "1993-036BSP",
        "meta_epoch": "2025-12-26T11:30:15.579072",
        "meta_mean_motion": 13.64814422,
        "meta_eccentricity": 0.0370315,
        "meta_inclination": 73.9556,
        "meta_ra_of_asc_node": 39.6133,
        "meta_arg_of_pericenter": 323.3763,
        "meta_mean_anomaly": 34.254,
        "meta_ephemeris_type": 0,
        "meta_classification_type": "U",
        "meta_norad_cat_id": 38199,
        "meta_element_set_no": 999,
        "meta_rev_at_epoch": 61209,
        "meta_bstar": 0.00067322,
        "meta_mean_motion_dot": 8.42e-06,
        "meta_mean_motion_ddot": 0,
        "tle_line1": "1 38199U 93036BSP 25360.47934698  .00000842  00000+0  67322-3 0  9993",
        "tle_line2": "2 38199  73.9556  39.6133 0370315 323.3763  34.2540 13.64814422612099"
      },
      "geometry": {
        "type": "Point",
        "coordinates": [
          111.30944256826687,
          73.2055463596642
        ]
      }
    },
    {
      "type": "Feature",
      "properties": {
        "norad_id": 38208,
        "name": "COSMOS 2251 DEB",
        "group": "cosmos-2251-debris",
        "lat": -33.07065722089206,
        "lon": -118.52274621307203,
        "alt_km": 621.6710527458163,
        "timestamp": "2025-12-26T22:28:06.183704+00:00",
        "meta_object_name": "COSMOS 2251 DEB",
        "meta_object_id": "1993-036BSY",
        "meta_epoch": "2025-12-26T10:15:20.422944",
        "meta_mean_motion": 14.8437794,
        "meta_eccentricity": 8.48e-05,
        "meta_inclination": 74.0044,
        "meta_ra_of_asc_node": 51.7225,
        "meta_arg_of_pericenter": 86.2803,
        "meta_mean_anomaly": 290.0795,
        "meta_ephemeris_type": 0,
        "meta_classification_type": "U",
        "meta_norad_cat_id": 38208,
        "meta_element_set_no": 999,
        "meta_rev_at_epoch": 71362,
        "meta_bstar": 0.0021793,
        "meta_mean_motion_dot": 0.00018329,
        "meta_mean_motion_ddot": 0,
        "tle_line1": "1 38208U 93036BSY 25360.42731971  .00018329  00000+0  21793-2 0  9998",
        "tle_line2": "2 38208  74.0044  51.7225 0000848  86.2803 290.0795 14.84377940713629"
      },
      "geometry": {
        "type": "Point",
        "coordinates": [
          -118.52274621307203,
          -33.07065722089206
        ]
      }
    }
  ]
}